HAWK-5A                 
1 52757U 22057AB  26194.48108528  .00011217  00000+0  18623-3 0  9994
2 52757  97.6616 355.0491 0003511 345.3244  14.7905 15.52284337230422
HAWK-6B                 
1 55324U 23011A   26194.41160527  .00002471  00000+0  11057-3 0  9994
2 55324  40.4967 199.0865 0003943 231.0284 129.0174 15.23143560191845
HAWK-6C                 
1 55326U 23011C   26194.41097653  .00002607  00000+0  11621-3 0  9993
2 55326  40.4959 195.9257 0004445 223.1927 136.8534 15.23146024191857
HAWK-6A                 
1 55327U 23011D   26194.41101301  .00002610  00000+0  11634-3 0  9998
2 55327  40.4967 197.5527 0003967 220.6915 139.3598 15.23145096191858
HAWK-7A                 
1 56191U 23054P   26194.24846032  .00003258  00000+0  12335-3 0  9991
2 56191  97.2672  80.9236 0001623 344.3845  15.7344 15.27620219181007
HAWK-7B                 
1 56193U 23054R   26193.98637458  .00003227  00000+0  12220-3 0  9992
2 56193  97.2698  78.9411 0001587  20.8733 339.2571 15.27616354180965
HAWK-7C                 
1 56200U 23054Y   26194.05175859  .00003465  00000+0  13099-3 0  9991
2 56200  97.2677  79.7659 0001126   4.3519 355.7730 15.27620878180979
